      2.10          N: GNSS NAV DATA                        RINEX VERSION / TYPE
fic2rin                                 08/20/2021 00:17:27 PGM / RUN BY / DATE
                                                            END OF HEADER
22 21  8 20  0  0  0.0-5.340757779777e-04 9.436007530894e-12 0.000000000000e+00
    3.100000000000e+01-1.371250000000e+02 4.926633785501e-09 2.024695714441e+00
   -7.253140211105e-06 6.798490067013e-03 6.766989827156e-06 5.153762411118e+03
    4.320000000000e+05 9.313225746155e-08 2.277052216685e+00 6.891787052155e-08
    9.360850907185e-01 2.398437500000e+02-9.069826659600e-01-8.180697901761e-09
   -1.057186893220e-10 1.000000000000e+00 2.171000000000e+03 0.000000000000e+00
    2.400000000000e+00 0.000000000000e+00-1.769512891769e-08 3.100000000000e+01
    4.248000000000e+05 4.000000000000e+00
32 21  8 20  0  0  0.0 6.451271474361e-06-2.842170943040e-12 0.000000000000e+00
    1.140000000000e+02-1.078125000000e+01 4.604834666990e-09-2.455000133798e+00
   -5.234032869339e-07 5.073950160295e-03 1.028738915920e-05 5.153706972122e+03
    4.320000000000e+05 1.564621925354e-07-2.864336836521e+00-8.568167686462e-08
    9.578882213521e-01 1.784687500000e+02-2.367793300552e+00-7.814254066476e-09
    6.521700226420e-10 1.000000000000e+00 2.171000000000e+03 0.000000000000e+00
    2.400000000000e+00 0.000000000000e+00 4.656612873077e-10 1.140000000000e+02
    4.248000000000e+05 4.000000000000e+00
19 21  8 20  0  0  0.0 4.185223951936e-05 5.002220859751e-12 0.000000000000e+00
    6.100000000000e+01 1.178750000000e+02 3.861946579862e-09-7.496475761848e-01
    6.284564733505e-06 9.218805003911e-03 6.221234798431e-06 5.153647735596e+03
    4.320000000000e+05-1.527369022369e-07 3.902285948845e-01 1.005828380585e-07
    9.803554977758e-01 2.735000000000e+02 1.921547980758e+00-7.938902115711e-09
    3.132273328900e-10 1.000000000000e+00 2.171000000000e+03 0.000000000000e+00
    3.400000000000e+00 0.000000000000e+00-1.536682248116e-08 6.100000000000e+01
    4.248000000000e+05 4.000000000000e+00
12 21  8 20  0  0  0.0-8.531846106052e-05-5.343281372916e-12 0.000000000000e+00
    1.390000000000e+02 4.571875000000e+01 4.113385624736e-09-4.698667873806e-01
    2.313405275345e-06 8.236621855758e-03 1.084990799427e-05 5.153697956085e+03
    4.320000000000e+05-7.264316082001e-08-6.908058248011e-01 5.215406417847e-08
    9.725386364007e-01 1.768437500000e+02 1.228670565941e+00-7.821754378894e-09
   -6.718136980228e-10 1.000000000000e+00 2.171000000000e+03 0.000000000000e+00
    3.400000000000e+00 0.000000000000e+00-1.257285475731e-08 1.390000000000e+02
    4.248000000000e+05 4.000000000000e+00
 8 21  8 20  0  0  0.0-3.329105675220e-05-1.477928890381e-12 0.000000000000e+00
    1.060000000000e+02 1.338437500000e+02 4.090884687482e-09-3.096895533810e+00
    6.932765245438e-06 6.424537161365e-03 7.860362529755e-06 5.153644557953e+03
    4.320000000000e+05-8.754432201385e-08 2.660153923803e-01-9.313225746155e-09
    9.668991310927e-01 2.312187500000e+02 5.900120067683e-02-7.865327622466e-09
    1.560779298437e-10 1.000000000000e+00 2.171000000000e+03 0.000000000000e+00
    3.400000000000e+00 0.000000000000e+00 5.122274160385e-09 1.060000000000e+02
    4.248000000000e+05 4.000000000000e+00
26 21  8 20  0  0  0.0 1.245979219675e-04 4.433786671143e-12 0.000000000000e+00
    5.000000000000e+01 1.000000000000e+01 4.808057417748e-09-1.323218172891e+00
    5.476176738739e-07 6.015269085765e-03 1.044943928719e-05 5.153609441757e+03
    4.320000000000e+05 1.676380634308e-08-8.089570224785e-01-1.583248376846e-07
    9.407095678723e-01 1.690937500000e+02 2.930237771822e-01-7.997475984119e-09
   -7.021721054295e-10 1.000000000000e+00 2.171000000000e+03 0.000000000000e+00
    2.400000000000e+00 0.000000000000e+00 6.984919309616e-09 5.000000000000e+01
    4.248000000000e+05 4.000000000000e+00
24 21  8 20  0  0  0.0 2.131401561201e-04 1.068656274583e-11 0.000000000000e+00
    2.500000000000e+01 1.087500000000e+01 5.790598344521e-09 1.245675685152e+00
    7.078051567078e-07 1.139733311720e-02 5.317851901054e-06 5.153705644608e+03
    4.320000000000e+05-1.080334186554e-07-1.882201510185e+00 1.993030309677e-07
    9.344880376806e-01 2.645937500000e+02 7.503057796017e-01-8.691433461662e-09
   -1.307197307158e-10 1.000000000000e+00 2.171000000000e+03 0.000000000000e+00
    2.400000000000e+00 0.000000000000e+00 2.793967723846e-09 2.500000000000e+01
    4.248000000000e+05 4.000000000000e+00
27 21  8 20  0  0  0.0-1.807869412005e-04-5.570655048359e-12 0.000000000000e+00
    7.400000000000e+01 1.347500000000e+02 3.838731327140e-09 3.063922137112e+00
    6.884336471558e-06 9.456377127208e-03 7.651746273041e-06 5.153693599701e+03
    4.320000000000e+05-3.725290298462e-08 2.839506275920e-01-7.823109626770e-08
    9.755167016605e-01 2.380312500000e+02 6.356838337547e-01-7.692463279115e-09
    1.928651764659e-10 1.000000000000e+00 2.171000000000e+03 0.000000000000e+00
    2.400000000000e+00 0.000000000000e+00 1.862645149231e-09 7.400000000000e+01
    4.248000000000e+05 4.000000000000e+00
18 21  8 20  0  0  0.0 3.311741165817e-04-3.637978807092e-12 0.000000000000e+00
    6.800000000000e+01-2.284375000000e+01 4.531974489214e-09 1.222826184807e+00
   -1.152977347374e-06 1.840017153881e-03-2.868473529816e-07 5.153651193619e+03
    4.320000000000e+05-1.490116119385e-08 1.352748330026e+00 1.024454832077e-07
    9.686789464863e-01 3.891562500000e+02 2.907708245308e+00-8.466424089118e-09
    3.250135381184e-11 1.000000000000e+00 2.171000000000e+03 0.000000000000e+00
    2.400000000000e+00 0.000000000000e+00-8.381903171539e-09 6.800000000000e+01
    4.248000000000e+05 4.000000000000e+00
25 21  8 20  0  0  0.0 1.940433867276e-04 6.480149750132e-12 0.000000000000e+00
    6.000000000000e+01 3.015625000000e+01 4.473400620806e-09-6.531899994825e-01
    1.482665538788e-06 9.833253687248e-03 1.036003232002e-05 5.153587556839e+03
    4.320000000000e+05-3.911554813385e-08-7.653265601575e-01 1.434236764908e-07
    9.598492191499e-01 1.787187500000e+02 9.678651909901e-01-7.995690195448e-09
   -7.650318666480e-10 1.000000000000e+00 2.171000000000e+03 0.000000000000e+00
    2.400000000000e+00 0.000000000000e+00 5.587935447693e-09 6.000000000000e+01
    4.248000000000e+05 4.000000000000e+00
20 21  8 20  0  0  0.0 5.195662379265e-04-2.273736754432e-13 0.000000000000e+00
    4.800000000000e+01-1.480937500000e+02 4.819843622976e-09 2.051744003259e+00
   -7.838010787964e-06 5.524214589968e-03 7.018446922302e-06 5.153646326065e+03
    4.320000000000e+05-7.450580596924e-09 2.230825795992e+00 8.195638656616e-08
    9.393585952103e-01 2.293125000000e+02 2.974201146022e+00-8.277487647728e-09
   -1.546492989069e-10 1.000000000000e+00 2.171000000000e+03 0.000000000000e+00
    2.400000000000e+00 0.000000000000e+00-8.381903171539e-09 4.800000000000e+01
    4.248000000000e+05 4.000000000000e+00
17 21  8 20  0  0  0.0 4.919525235891e-04 5.798028723802e-12 0.000000000000e+00
    5.600000000000e+01 1.315625000000e+02 3.697296864398e-09-3.137256027512e+00
    6.956979632378e-06 1.344870030880e-02 6.416812539101e-06 5.153652315140e+03
    4.320000000000e+05 1.341104507446e-07 3.451910921031e-01 1.303851604462e-08
    9.817720135565e-01 2.656875000000e+02-1.559692229979e+00-7.524956301777e-09
    1.767930784271e-10 1.000000000000e+00 2.171000000000e+03 0.000000000000e+00
    3.400000000000e+00 0.000000000000e+00-1.117587089539e-08 5.600000000000e+01
    4.248000000000e+05 4.000000000000e+00
23 21  8 20  0  0  0.0 6.857048720121e-05-5.002220859751e-12 0.000000000000e+00
    8.400000000000e+01-1.556562500000e+02 4.215889894451e-09 4.721494794010e-01
   -7.977709174156e-06 1.566389924847e-03 8.191913366318e-06 5.153675567627e+03
    4.320000000000e+05 1.676380634308e-08 2.352719891519e+00 3.725290298462e-09
    9.653171548885e-01 2.243750000000e+02 2.655662994978e+00-7.954974213749e-09
   -4.000166622996e-11 1.000000000000e+00 2.171000000000e+03 0.000000000000e+00
    2.400000000000e+00 0.000000000000e+00-8.381903171539e-09 3.400000000000e+02
    4.248000000000e+05 4.000000000000e+00
14 21  8 20  0  0  0.0 1.998618245125e-05-8.526512829121e-12 0.000000000000e+00
    2.140000000000e+02 2.265625000000e+01 4.407326439980e-09-4.934116492614e-01
    1.033768057823e-06 1.029418664984e-03 1.046061515808e-05 5.153648574829e+03
    4.320000000000e+05 9.499490261078e-08-7.192596955505e-01-2.607703208923e-08
    9.559708331424e-01 1.800937500000e+02 3.076650586481e+00-7.824254483034e-09
   -6.839570609855e-10 1.000000000000e+00 2.171000000000e+03 0.000000000000e+00
    2.400000000000e+00 0.000000000000e+00-7.916241884232e-09 7.260000000000e+02
    4.248000000000e+05 4.000000000000e+00
28 21  8 20  0  0  0.0 5.167787894607e-04-6.821210263297e-12 0.000000000000e+00
    3.400000000000e+01 4.381250000000e+01 3.925520656549e-09-2.653829686522e+00
    2.237036824226e-06 1.747764565516e-02 1.067854464054e-05 5.153725357056e+03
    4.320000000000e+05 1.955777406693e-07-6.685666158431e-01 1.173466444016e-07
    9.717019935512e-01 1.789062500000e+02-1.340721534205e+00-7.273517256903e-09
   -5.932389964997e-10 1.000000000000e+00 2.171000000000e+03 0.000000000000e+00
    4.850000000000e+00 6.300000000000e+01-1.117587089539e-08 3.400000000000e+01
    4.248000000000e+05 4.000000000000e+00
19 21  8 19 23 59 44.0 4.185130819678e-05 5.002220859751e-12 0.000000000000e+00
    1.400000000000e+01 1.178750000000e+02 3.861946579862e-09-7.519812509003e-01
    6.284564733505e-06 9.218800696544e-03 6.221234798431e-06 5.153647741318e+03
    4.319840000000e+05-1.527369022369e-07 3.902287411763e-01 1.005828380585e-07
    9.803555007017e-01 2.735000000000e+02 1.921547805208e+00-7.938902115711e-09
    3.132273328900e-10 1.000000000000e+00 2.171000000000e+03 0.000000000000e+00
    2.400000000000e+00 0.000000000000e+00-1.536682248116e-08 1.400000000000e+01
    4.249500000000e+05 4.000000000000e+00
